NUSAT-48 (HENRIETTA LE*)
1 60498U 24149AG  26068.80506098  .00012988  00000+0  45212-3 0  9999
2 60498  97.3923 150.8264 0002754 263.3026  96.7901 15.29812597 86946
STARLINK-34774          
1 66485U 25263A   26068.17606973  .00031101  00000+0  11356-2 0  9991
2 66485  43.0043 353.3213 0001820 252.6515 107.4138 15.27561475 18828
